     2.10           N: GPS NAV DATA                         RINEX VERSION / TYPE
teqc  2008Oct2      gpsops              20090121 00:10:39UTCPGM / RUN BY / DATE
Linux 2.4.20-8|Pentium IV|gcc -static|Linux|486/DX+         COMMENT
soc2rnx ver 1.20    gpsops              21-Jan-2009 00:10:24COMMENT
Forced Modulo Decimation to 30 seconds                      COMMENT
GLPS                                    MARKER NAME         COMMENT
42005M002                               MARKER NUMBER       COMMENT
-33801.4662 -6377516.5323 -82154.3508                       COMMENT
                                                            COMMENT
This data is provided as a public service by NASA/JPL.      COMMENT
No warranty is expressed or implied regarding suitability   COMMENT
for use.  For further information, contact:                 COMMENT
Dave Stowers, NASA/JPL m/s 238-600                          COMMENT
4800 Oak Grove Drive, Pasadena CA 91109 USA                 COMMENT
                                                            END OF HEADER
 7 09  1 20 10  0  0.0 2.323603257537D-05-2.273736754432D-13 0.000000000000D+00
    8.600000000000D+01-8.896875000000D+01 4.318037006431D-09-8.093977470307D-01
   -4.651024937630D-06 2.306945621967D-03 6.522983312607D-06 5.153683946609D+03
    2.088000000000D+05 1.303851604462D-08-1.281249247574D+00-5.587935447693D-09
    9.655329484714D-01 2.560312500000D+02 2.922797017908D+00-7.981046728346D-09
    7.321733551020D-11 1.000000000000D+00 1.515000000000D+03 0.000000000000D+00
    2.000000000000D+00 0.000000000000D+00-1.071020960808D-08 8.600000000000D+01
    2.016000000000D+05
11 09  1 20 10  0  0.0 9.996816515923D-06-1.023181539495D-12 0.000000000000D+00
    9.100000000000D+01 2.209375000000D+01 6.191329322289D-09-9.464174031580D-01
    1.166015863419D-06 9.159424225800D-03 7.916241884232D-06 5.153663339615D+03
    2.088000000000D+05 1.918524503708D-07 1.654734810873D+00 8.381903171539D-08
    8.895620414411D-01 1.868437500000D+02 6.775450429506D-01-8.763936481703D-09
   -4.028739241732D-10 1.000000000000D+00 1.515000000000D+03 0.000000000000D+00
    2.800000000000D+00 0.000000000000D+00-1.210719347000D-08 9.100000000000D+01
    2.016000000000D+05
13 09  1 20 10  0  0.0 2.856403589249D-04 1.364242052659D-12 0.000000000000D+00
    4.800000000000D+01-8.187500000000D+00 3.771942830845D-09 1.699149109089D+00
   -4.991888999939D-07 3.703383146785D-03 2.890825271606D-06 5.153765184402D+03
    2.088000000000D+05 1.676380634308D-08-2.275078669976D+00-3.911554813385D-08
    9.952849659110D-01 3.418125000000D+02 1.507512367610D+00-7.906400761899D-09
    2.035799084918D-11 1.000000000000D+00 1.515000000000D+03 0.000000000000D+00
    2.000000000000D+00 0.000000000000D+00-1.117587089539D-08 4.800000000000D+01
    2.016000000000D+05
19 09  1 20 10  0  0.0 3.360025584698D-05-4.547473508865D-13 0.000000000000D+00
    5.000000000000D+01-2.875000000000D+00 4.811271837355D-09 1.328534785846D+00
   -3.911554813385D-08 5.070494604297D-03 6.709247827530D-06 5.153770231247D+03
    2.088000000000D+05 8.754432201385D-08 8.846459652153D-01 6.146728992462D-08
    9.572779665383D-01 2.436875000000D+02-3.912336108274D-01-7.983546832485D-09
   -1.717928701483D-10 1.000000000000D+00 1.515000000000D+03 0.000000000000D+00
    2.000000000000D+00 0.000000000000D+00-1.443549990654D-08 5.000000000000D+01
    2.016000000000D+05
20 09  1 20 10  0  0.0 9.317975491285D-05-1.023181539495D-12 0.000000000000D+00
    7.200000000000D+01 9.440625000000D+01 4.704124517097D-09-2.855595890757D+00
    4.885718226433D-06 3.874521236867D-03 6.364658474922D-06 5.153699693680D+03
    2.088000000000D+05 1.862645149231D-08 2.885690930302D+00-3.166496753693D-08
    9.440579518259D-01 2.474687500000D+02 1.307630609595D+00-8.138910446860D-09
    3.321566928024D-11 1.000000000000D+00 1.515000000000D+03 0.000000000000D+00
    2.800000000000D+00 0.000000000000D+00-6.519258022308D-09 7.200000000000D+01
    2.016000000000D+05
23 09  1 20 10  0  0.0 3.854520618916D-04 7.958078640513D-13 0.000000000000D+00
    1.070000000000D+02-2.593750000000D+00 4.370539193357D-09 7.755647191893D-01
   -1.713633537292D-07 5.766946589574D-03 2.590939402580D-06 5.153654233932D+03
    2.088000000000D+05 1.098960638046D-07-2.324077596921D+00 5.401670932770D-08
    9.709505773831D-01 3.340000000000D+02 2.881918466878D+00-8.245700609385D-09
    7.143154683922D-12 1.000000000000D+00 1.515000000000D+03 0.000000000000D+00
    2.800000000000D+00 0.000000000000D+00-2.002343535423D-08 1.070000000000D+02
    2.016000000000D+05
25 09  1 20 10  0  0.0 1.866356469691D-04 2.603428583825D-11 0.000000000000D+00
    4.800000000000D+01-9.528125000000D+01 4.157316026042D-09-2.584139317947D+00
   -4.760921001434D-06 1.179160538595D-02 5.986541509628D-06 5.153682434082D+03
    2.088000000000D+05 8.009374141693D-08-1.376034688431D+00 1.601874828339D-07
    9.678531087497D-01 2.646562500000D+02-1.236563657051D+00-7.748179885650D-09
    5.857386840816D-11 1.000000000000D+00 1.515000000000D+03 0.000000000000D+00
    2.000000000000D+00 0.000000000000D+00-7.450580596924D-09 4.800000000000D+01
    2.016000000000D+05
32 09  1 20 10  0  0.0 3.021885640919D-04-2.728484105319D-12 0.000000000000D+00
    7.400000000000D+01 8.512500000000D+01 4.378753821244D-09-2.466157308208D-02
    4.433095455170D-06 1.364164042752D-02 5.939975380898D-06 5.153656358719D+03
    2.088000000000D+05-1.955777406693D-07 2.992491503134D+00-2.030283212662D-07
    9.660861524060D-01 2.709375000000D+02-1.208975778214D+00-8.263201338361D-09
    5.321650239522D-11 1.000000000000D+00 1.515000000000D+03 0.000000000000D+00
    2.000000000000D+00 0.000000000000D+00-3.259629011154D-09 7.400000000000D+01
    2.016000000000D+05
28 09  1 20 10  0  0.0-2.372451126575D-05 1.136868377216D-13 0.000000000000D+00
    7.200000000000D+01-3.843750000000D+01 4.284821337150D-09 2.486433178699D+00
   -2.129003405571D-06 1.455796149094D-02 8.502975106239D-06 5.153640695572D+03
    2.088000000000D+05 8.754432201385D-08-2.049249106194D-01-2.440065145493D-07
    9.659235315065D-01 2.167812500000D+02-2.064979410795D+00-7.555314709184D-09
    3.064413359402D-10 1.000000000000D+00 1.515000000000D+03 0.000000000000D+00
    4.000000000000D+00 0.000000000000D+00-1.024454832077D-08 7.200000000000D+01
    2.022000000000D+05
11 09  1 20  9 59 44.0 9.998213499784D-06-1.023181539495D-12 0.000000000000D+00
    0.000000000000D+00 2.209375000000D+01 6.192043637758D-09-9.487513997154D-01
    1.167878508568D-06 9.159422363155D-03 7.914379239082D-06 5.153663343430D+03
    2.087840000000D+05 1.918524503708D-07 1.654734917666D+00 8.381903171539D-08
    8.895620297377D-01 1.868437500000D+02 6.775452960355D-01-8.763936481703D-09
   -4.018024509706D-10 1.000000000000D+00 1.515000000000D+03 0.000000000000D+00
    2.000000000000D+00 0.000000000000D+00-1.210719347000D-08 0.000000000000D+00
    2.044500000000D+05
17 09  1 20 10  0  0.0 4.474446177483D-05 9.094947017729D-13 0.000000000000D+00
    3.000000000000D+00-3.250000000000D+00 4.751626495745D-09 2.071964102924D+00
   -1.639127731323D-07 4.133467446081D-03 6.964430212975D-06 5.153627120972D+03
    2.088000000000D+05-1.136213541031D-07 8.282237047846D-01 4.470348358154D-08
    9.595808702349D-01 2.459062500000D+02-2.768798516578D+00-8.022477025512D-09
   -7.107438910502D-11 1.000000000000D+00 1.515000000000D+03 0.000000000000D+00
    2.000000000000D+00 0.000000000000D+00-1.024454832077D-08 3.000000000000D+00
    2.048700000000D+05
20 09  1 20  9 59 44.0 9.317276999354D-05-1.023181539495D-12 0.000000000000D+00
    2.500000000000D+01 9.440625000000D+01 4.705553148033D-09-2.857929672265D+00
    4.885718226433D-06 3.874523332343D-03 6.364658474922D-06 5.153699699402D+03
    2.087840000000D+05 2.048909664154D-08 2.885691067816D+00-3.166496753693D-08
    9.440579445113D-01 2.474687500000D+02 1.307630717851D+00-8.139624762329D-09
    3.285851154604D-11 1.000000000000D+00 1.515000000000D+03 0.000000000000D+00
    2.000000000000D+00 0.000000000000D+00-6.519258022308D-09 2.500000000000D+01
    2.084700000000D+05
 7 09  1 20 12  0  0.0 2.323463559151D-05-2.273736754432D-13 0.000000000000D+00
    8.700000000000D+01-9.325000000000D+01 4.311608167215D-09 2.409608443921D-01
   -4.835426807404D-06 2.307029906660D-03 6.727874279022D-06 5.153684329987D+03
    2.160000000000D+05 1.490116119385D-08-1.281306712459D+00 9.313225746155D-09
    9.655334078277D-01 2.518750000000D+02 2.922610939117D+00-7.992475775840D-09
    6.714565402886D-11 1.000000000000D+00 1.515000000000D+03 0.000000000000D+00
    2.000000000000D+00 0.000000000000D+00-1.071020960808D-08 8.700000000000D+01
    2.088000000000D+05
11 09  1 20 11 59 44.0 9.990297257900D-06-1.023181539495D-12 0.000000000000D+00
    2.200000000000D+01 2.487500000000D+01 6.253831925773D-09 1.014785383027D-01
    1.383945345879D-06 9.160092100501D-03 7.629394531250D-06 5.153664720535D+03
    2.159840000000D+05 4.656612873077D-08 1.654671293895D+00 1.192092895508D-07
    8.895586913587D-01 1.913125000000D+02 6.775145396458D-01-8.863226331810D-09
   -4.125171829965D-10 1.000000000000D+00 1.515000000000D+03 0.000000000000D+00
    2.000000000000D+00 0.000000000000D+00-1.210719347000D-08 2.200000000000D+01
    2.088000000000D+05
13 09  1 20 12  0  0.0 2.856501378119D-04 1.364242052659D-12 0.000000000000D+00
    4.900000000000D+01-1.568750000000D+01 3.802301238252D-09 2.749456660763D+00
   -7.692724466324D-07 3.704104688950D-03 2.903863787651D-06 5.153763330460D+03
    2.160000000000D+05 2.235174179077D-08-2.275135233703D+00 1.862645149231D-08
    9.952852189958D-01 3.411875000000D+02 1.507324780550D+00-7.859255940985D-09
   -1.428630936784D-12 1.000000000000D+00 1.515000000000D+03 0.000000000000D+00
    2.000000000000D+00 0.000000000000D+00-1.117587089539D-08 4.900000000000D+01
    2.088000000000D+05
